NORAD_CAT_ID,OBJECT_NAME,OBJECT_TYPE,EPOCH,MEAN_MOTION,ECCENTRICITY,INCLINATION,RA_OF_ASC_NODE,ARG_OF_PERICENTER,MEAN_ANOMALY,BSTAR,MEAN_MOTION_DOT,MEAN_MOTION_DDOT,TLE_LINE0,TLE_LINE1,TLE_LINE2,SEMIMAJOR_AXIS,PERIOD,APOGEE,PERIGEE,DECAYED
49409.0,STARLINK-3075,PAYLOAD,2022-02-28 22:00:00,15.08871495,0.0002507,53.2206,347.1808,46.8546,264.367,-0.0039833,-0.00063185,0.0,0 STARLINK-3075,1 49409U 21104B   22059.91667824 -.00063185  00000-0 -39833-2 0  9998,2 49409  53.2206 347.1808 0002507  46.8546 264.3670 15.08871495  3586,6917.784000000002,95.436,541.383,537.915,0.0
49409.0,STARLINK-3075,PAYLOAD,2022-03-01 06:00:00,15.08803421,0.0002648,53.2205,345.686,42.4768,280.35200000000003,0.0031295,0.00049822,0.0,0 STARLINK-3075,1 49409U 21104B   22060.25001157  .00049822  00000-0  31295-2 0  9992,2 49409  53.2205 345.6860 0002648  42.4768 280.3520 15.08803421 17884,6917.9919999999975,95.44,541.689,538.025,0.0
49409.0,STARLINK-3075,PAYLOAD,2022-03-01 14:00:01,15.08816038,0.0002488,53.2208,344.18800000000016,45.9498,288.4557,0.001776,0.00028072,0.0,0 STARLINK-3075,1 49409U 21104B   22060.58334491  .00028072  00000-0  17760-2 0  9993,2 49409  53.2208 344.1880 0002488  45.9498 288.4557 15.08816038  3582,6917.954000000002,95.439,541.54,538.097,0.0
49409.0,STARLINK-3075,PAYLOAD,2022-03-01 22:00:01,15.08856089,0.0002543,53.221,342.6923,46.1765,299.8664,-0.0038402,-0.00060919,0.0,0 STARLINK-3075,1 49409U 21104B   22060.91668981 -.00060919  00000-0 -38402-2 0  9998,2 49409  53.2210 342.6923 0002543  46.1765 299.8664 15.08856089 17982,6917.831,95.437,541.455,537.937,0.0
49409.0,STARLINK-3075,PAYLOAD,2022-03-02 14:00:01,15.08808458,0.0002497,53.2211,339.6995,46.6817,322.4688,0.0024615,0.00039071,0.0,0 STARLINK-3075,1 49409U 21104B   22061.58334491  .00039071  00000-0  24615-2 0  9992,2 49409  53.2211 339.6995 0002497  46.6817 322.4688 15.08808458 18098,6917.977,95.44,541.569,538.114,0.0
49409.0,STARLINK-3075,PAYLOAD,2022-03-02 22:00:00,15.08848882,0.0002604,53.2213,338.2041,47.1302,333.586,-0.0016120999999999,-0.00025861,0.0,0 STARLINK-3075,1 49409U 21104B   22061.91667824 -.00025861  00000-0 -16121-2 0  9995,2 49409  53.2213 338.2041 0002604  47.1302 333.5860 15.08848882  3603,6917.853,95.437,541.52,537.9169999999998,0.0
49409.0,STARLINK-3075,PAYLOAD,2022-03-03 06:00:00,15.08825302,0.000272,53.2209,336.709,44.154,348.1621,0.0023788,0.0003776,0.0,0 STARLINK-3075,1 49409U 21104B   22062.25001157  .00037760  00000-0  23788-2 0  9990,2 49409  53.2209 336.7090 0002720  44.1540 348.1621 15.08825302 18194,6917.925,95.438,541.672,537.909,0.0
49409.0,STARLINK-3075,PAYLOAD,2022-03-03 14:00:01,15.08826035,0.0002515,53.221,335.211,48.6217,355.2965,0.0024991,0.00039695,0.0,0 STARLINK-3075,1 49409U 21104B   22062.58334491  .00039695  00000-0  24991-2 0  9992,2 49409  53.2210 335.2110 0002515  48.6217 355.2965 15.08826035  3609,6917.9230000000025,95.438,541.528,538.048,0.0
49409.0,STARLINK-3075,PAYLOAD,2022-03-03 18:00:00,15.08858274,0.0002524,53.2211,334.4629,50.6972,179.0099,-0.0009006,-0.00014601,0.0,0 STARLINK-3075,1 49409U 21104B   22062.75001157 -.00014601  00000-0 -90060-3 0  9994,2 49409  53.2211 334.4629 0002524  50.6972 179.0099 15.08858274 18265,6917.825,95.436,541.436,537.943,0.0
49409.0,STARLINK-3075,PAYLOAD,2022-03-04 14:00:01,15.08814936,0.0002452,53.2205,330.7223,49.5754,29.195,0.0029025,0.00046177,0.0,0 STARLINK-3075,1 49409U 21104B   22063.58335648  .00046177  00000-0  29025-2 0  9994,2 49409  53.2205 330.7223 0002452  49.5754  29.1950 15.08814936  3602,6917.956999999999,95.439,541.518,538.126,0.0
49409.0,STARLINK-3075,PAYLOAD,2022-03-04 22:00:00,15.088614499999998,0.0002573,53.2205,329.2273,49.4848,40.8083,-0.0015904,-0.00025527,0.0,0 STARLINK-3075,1 49409U 21104B   22063.91667824 -.00025527  00000-0 -15904-2 0  9994,2 49409  53.2205 329.2273 0002573  49.4848  40.8083 15.08861450 18445,6917.815,95.436,541.46,537.9,0.0
49409.0,STARLINK-3075,PAYLOAD,2022-03-05 06:00:00,15.08861332,0.0002628999999999,53.2198,327.7315,46.2154,55.6915,-0.0012103,-0.00019511,0.0,0 STARLINK-3075,1 49409U 21104B   22064.25001157 -.00019511  00000-0 -12103-2 0  9997,2 49409  53.2198 327.7315 0002629  46.2154  55.6915 15.08861332  3578,6917.815,95.436,541.499,537.861,0.0
49409.0,STARLINK-3075,PAYLOAD,2022-03-05 14:00:01,15.08812804,0.0002382,53.2197,326.2336,50.6817,62.8479,0.0031302,0.00049846,0.0,0 STARLINK-3075,1 49409U 21104B   22064.58334491  .00049846  00000-0  31302-2 0  9997,2 49409  53.2197 326.2336 0002382  50.6817  62.8479 15.08812804 18543,6917.964,95.439,541.476,538.181,0.0
49409.0,STARLINK-3075,PAYLOAD,2022-03-05 22:00:01,15.08864591,0.0002492,53.2197,324.7385,49.7163,75.4618,-0.0022822,-0.00036452,0.0,0 STARLINK-3075,1 49409U 21104B   22064.91668981 -.00036452  00000-0 -22822-2 0  9996,2 49409  53.2197 324.7385 0002492  49.7163  75.4618 15.08864591  3612,6917.805,95.436,541.394,537.946,0.0
49409.0,STARLINK-3075,PAYLOAD,2022-03-06 06:00:00,15.0883737,0.000251,53.2191,323.2426,46.2877,90.4424,7.9607e-05,9.79e-06,0.0,0 STARLINK-3075,1 49409U 21104B   22065.25001157  .00000979  00000-0  79607-4 0  9998,2 49409  53.2191 323.2426 0002510  46.2877  90.4424 15.08837370 18647,6917.888000000001,95.438,541.49,538.0169999999998,0.0
49409.0,STARLINK-3075,PAYLOAD,2022-03-06 14:00:01,15.08809946,0.0002286,53.2185,321.743,47.5313,100.7907,-0.0018603,-0.0002975,0.0,0 STARLINK-3075,1 49409U 21104B   22065.58334491 -.00029750  00000-0 -18603-2 0  9991,2 49409  53.2185 321.7430 0002286  47.5313 100.7907 15.08809946 18691,6917.972,95.439,541.419,538.256,0.0
49409.0,STARLINK-3075,PAYLOAD,2022-03-06 22:00:00,15.08683465,0.0002372,53.2181,320.247,44.6959,115.1975,0.01245,0.00202743,0.0,0 STARLINK-3075,1 49409U 21104B   22065.91667824  .00202743  00000-0  12450-1 0  9993,2 49409  53.2181 320.2470 0002372  44.6959 115.1975 15.08683465  3601,6918.359,95.447,541.865,538.5830000000002,0.0
49409.0,STARLINK-3075,PAYLOAD,2022-03-07 06:00:00,15.08827231,0.0002465,53.2187,318.7536,45.3469,126.1058,0.00049764,7.638e-05,0.0,0 STARLINK-3075,1 49409U 21104B   22066.25001157  .00007638  00000-0  49764-3 0  9998,2 49409  53.2187 318.7536 0002465  45.3469 126.1058 15.08827231 18790,6917.919,95.438,541.49,538.0790000000002,0.0
49409.0,STARLINK-3075,PAYLOAD,2022-03-07 12:00:00,15.08815138,0.0002308,53.2189,317.6301,49.4047,40.7413,0.0021173,0.00033547,0.0,0 STARLINK-3075,1 49409U 21104B   22066.50001157  .00033547  00000-0  21173-2 0  9997,2 49409  53.2189 317.6301 0002308  49.4047  40.7413 15.08815138  3639,6917.956,95.439,541.418,538.225,0.0
49409.0,STARLINK-3075,PAYLOAD,2022-03-07 22:00:00,15.08854697,0.0002474,53.2189,315.7607,48.8425,145.7904,-0.0012005,-0.00019352,0.0,0 STARLINK-3075,1 49409U 21104B   22066.91667824 -.00019352  00000-0 -12005-2 0  9995,2 49409  53.2189 315.7607 0002474  48.8425 145.7904 15.08854697  3582,6917.835,95.437,541.4119999999998,537.989,0.0
49409.0,STARLINK-3075,PAYLOAD,2022-03-08 06:00:02,15.08854132,0.0002466,53.2188,314.2643,45.8636,160.4348,-0.002179,-0.00034815,0.0,0 STARLINK-3075,1 49409U 21104B   22067.25002315 -.00034815  00000-0 -21790-2 0  9993,2 49409  53.2188 314.2643 0002466  45.8636 160.4348 15.08854132 18943,6917.837,95.437,541.408,537.996,0.0
49409.0,STARLINK-3075,PAYLOAD,2022-03-08 14:00:01,15.088127300000002,0.0002314,53.219,312.7663,49.7198,168.1157,0.0028811,0.0004583,0.0,0 STARLINK-3075,1 49409U 21104B   22067.58334491  .00045830  00000-0  28811-2 0  9990,2 49409  53.2190 312.7663 0002314  49.7198 168.1157 15.08812730  3562,6917.964,95.439,541.43,538.2280000000002,0.0
49409.0,STARLINK-3075,PAYLOAD,2022-03-08 22:00:00,15.08850529,0.0002446,53.2191,311.2716,47.2499,182.1689,-0.0033519,-0.00053258,0.0,0 STARLINK-3075,1 49409U 21104B   22067.91667824 -.00053258  00000-0 -33519-2 0  9992,2 49409  53.2191 311.2716 0002446  47.2499 182.1689 15.08850529 19043,6917.848000000001,95.437,541.405,538.021,0.0
49409.0,STARLINK-3075,PAYLOAD,2022-03-09 14:00:01,15.08807664,0.0002328,53.2194,308.2773,49.8872,202.6884,0.0028017,0.00044544,0.0,0 STARLINK-3075,1 49409U 21104B   22068.58334491  .00044544  00000-0  28017-2 0  9990,2 49409  53.2194 308.2773 0002328  49.8872 202.6884 15.08807664 19145,6917.979,95.44,541.455,538.234,0.0
49409.0,STARLINK-3075,PAYLOAD,2022-03-09 22:00:01,15.08832427,0.0002516,53.2196,306.7827,47.6898,216.5195,-0.0007,-0.0001141,0.0,0 STARLINK-3075,1 49409U 21104B   22068.91668981 -.00011410  00000-0 -70000-3 0  9999,2 49409  53.2196 306.7827 0002516  47.6898 216.5195 15.08832427  3599,6917.904,95.438,541.509,538.028,0.0
49409.0,STARLINK-3075,PAYLOAD,2022-03-10 06:00:00,15.08851034,0.0002497,53.2195,305.2862,46.9302,228.7974,-0.0013583,-0.00021848,0.0,0 STARLINK-3075,1 49409U 21104B   22069.25001157 -.00021848  00000-0 -13583-2 0  9991,2 49409  53.2195 305.2862 0002497  46.9302 228.7974 15.08851034 19245,6917.847,95.437,541.439,537.984,0.0
49409.0,STARLINK-3075,PAYLOAD,2022-03-10 14:00:01,15.08827444,0.0002387,53.2199,303.7884,51.9073,235.4254,0.002719,0.00043237,0.0,0 STARLINK-3075,1 49409U 21104B   22069.58334491  .00043237  00000-0  27190-2 0  9990,2 49409  53.2199 303.7884 0002387  51.9073 235.4254 15.08827444  3567,6917.919,95.438,541.435,538.132,0.0
49409.0,STARLINK-3075,PAYLOAD,2022-03-10 20:00:01,15.08864104,0.0002475,53.22,302.6676,50.0214,156.0056,-0.0016565,-0.00026573,0.0,0 STARLINK-3075,1 49409U 21104B   22069.83334491 -.00026573  00000-0 -16565-2 0  9998,2 49409  53.2200 302.6676 0002475  50.0214 156.0056 15.08864104 19336,6917.807,95.436,541.384,537.96,0.0
49409.0,STARLINK-3075,PAYLOAD,2022-03-10 22:00:01,15.08862193,0.0002522,53.2199,302.2938,48.774,250.2202,-0.0019331,-0.00030942,0.0,0 STARLINK-3075,1 49409U 21104B   22069.91668981 -.00030942  00000-0 -19331-2 0  9990,2 49409  53.2199 302.2938 0002522  48.7740 250.2202 15.08862193  3598,6917.813,95.436,541.422,537.933,0.0
